SL-3 R/B                
1 19046U 88032B   26095.85407262  .00006019  00000+0  27813-3 0  9996
2 19046  97.5227  79.0213 0027140 136.4033 223.9353 15.20231258 56232
SL-16 R/B               
1 19120U 88039B   26095.82654019 -.00000071  00000+0 -10785-4 0  9992
2 19120  71.0174  11.1669 0023890 295.5929  64.2727 14.19620694962234
COSMOS 1953             
1 19210U 88050A   26095.59326877  .00008418  00000+0  29748-3 0  9996
2 19210  82.5054 131.1785 0011767  38.5154 321.6923 15.28970481 41896
SL-8 R/B                
1 19257U 88053B   26095.65351927  .00000303  00000+0  10663-3 0  9992
2 19257  74.0470  62.7591 0021330 238.3580 294.4110 14.38934591980472
COSMOS 1975             
1 19573U 88093A   26095.43912695  .00007660  00000+0  27465-3 0  9999
2 19573  82.5164  90.8179 0013315  79.5828 280.6911 15.28465707 23499
SL-14 R/B               
1 19574U 88093B   26095.73758096  .00000745  00000+0  82945-4 0  9998
2 19574  82.5346  16.6587 0019496 311.7800 110.0473 14.85691012  5039
SL-16 R/B               
1 19650U 88102B   26095.74615060  .00000305  00000+0  17793-3 0  9998
2 19650  70.9972  94.5654 0015467 322.2154  37.7882 14.16156239930726
INTERCOSMOS 24          
1 20261U 89080A   26095.49206914  .00000490  00000+0  14378-3 0  9991
2 20261  82.6016  86.9452 1187026 230.5586 118.4500 12.59591595670175
SL-14 R/B               
1 20262U 89080C   26095.60164855  .00000457  00000+0  12836-3 0  9992
2 20262  82.5944 155.9175 1230919 123.2674 249.2508 12.50519627663518
DELTA 1 R/B             
1 20323U 89089B   26095.79702623  .00000463  00000+0  12282-3 0  9992
2 20323  97.0683 298.9196 0070036  37.9194 322.6906 14.50687224899663
ARIANE 40 R/B           
1 20443U 90005H   26095.63693318  .00000403  00000+0  14142-3 0  9999
2 20443  98.3028 155.4879 0011297 121.1802 239.0495 14.39889914896684
DELTA 2 R/B(1)          
1 20453U 90008B   26095.86840860  .00072437  00000+0  74949-3 0  9991
2 20453  35.6040 355.9990 0076137 154.7475 205.7012 15.59877548930379
