CCSDS_OMM_VERS = 2.0
CREATION_DATE  = 
ORIGINATOR     = 

OBJECT_NAME    = SL-3 R/B
OBJECT_ID      = 1988-032B
CENTER_NAME    = EARTH
REF_FRAME      = TEME
TIME_SYSTEM    = UTC
MEAN_ELEMENT_THEORY = SGP/SGP4

EPOCH          = 2026-04-05T20:29:51.874368
MEAN_MOTION    = 15.20231258
ECCENTRICITY   = .002714
INCLINATION    = 97.5227
RA_OF_ASC_NODE = 79.0213
ARG_OF_PERICENTER = 136.4033
MEAN_ANOMALY   = 223.9353

EPHEMERIS_TYPE = 0
CLASSIFICATION_TYPE = U
NORAD_CAT_ID   = 19046
ELEMENT_SET_NO = 999
REV_AT_EPOCH   = 5623
BSTAR          = .27813E-3
MEAN_MOTION_DOT = .6019E-4
MEAN_MOTION_DDOT = 0

CCSDS_OMM_VERS = 2.0
CREATION_DATE  = 
ORIGINATOR     = 

OBJECT_NAME    = SL-16 R/B
OBJECT_ID      = 1988-039B
CENTER_NAME    = EARTH
REF_FRAME      = TEME
TIME_SYSTEM    = UTC
MEAN_ELEMENT_THEORY = SGP/SGP4

EPOCH          = 2026-04-05T19:50:13.072416
MEAN_MOTION    = 14.19620694
ECCENTRICITY   = .002389
INCLINATION    = 71.0174
RA_OF_ASC_NODE = 11.1669
ARG_OF_PERICENTER = 295.5929
MEAN_ANOMALY   = 64.2727

EPHEMERIS_TYPE = 0
CLASSIFICATION_TYPE = U
NORAD_CAT_ID   = 19120
ELEMENT_SET_NO = 999
REV_AT_EPOCH   = 96223
BSTAR          = -.10785E-4
MEAN_MOTION_DOT = -.71E-6
MEAN_MOTION_DDOT = 0

CCSDS_OMM_VERS = 2.0
CREATION_DATE  = 
ORIGINATOR     = 

OBJECT_NAME    = COSMOS 1953
OBJECT_ID      = 1988-050A
CENTER_NAME    = EARTH
REF_FRAME      = TEME
TIME_SYSTEM    = UTC
MEAN_ELEMENT_THEORY = SGP/SGP4

EPOCH          = 2026-04-05T14:14:18.421728
MEAN_MOTION    = 15.28970481
ECCENTRICITY   = .0011767
INCLINATION    = 82.5054
RA_OF_ASC_NODE = 131.1785
ARG_OF_PERICENTER = 38.5154
MEAN_ANOMALY   = 321.6923

EPHEMERIS_TYPE = 0
CLASSIFICATION_TYPE = U
NORAD_CAT_ID   = 19210
ELEMENT_SET_NO = 999
REV_AT_EPOCH   = 4189
BSTAR          = .29748E-3
MEAN_MOTION_DOT = .8418E-4
MEAN_MOTION_DDOT = 0

CCSDS_OMM_VERS = 2.0
CREATION_DATE  = 
ORIGINATOR     = 

OBJECT_NAME    = SL-8 R/B
OBJECT_ID      = 1988-053B
CENTER_NAME    = EARTH
REF_FRAME      = TEME
TIME_SYSTEM    = UTC
MEAN_ELEMENT_THEORY = SGP/SGP4

EPOCH          = 2026-04-05T15:41:04.064928
MEAN_MOTION    = 14.38934591
ECCENTRICITY   = .002133
INCLINATION    = 74.0470
RA_OF_ASC_NODE = 62.7591
ARG_OF_PERICENTER = 238.3580
MEAN_ANOMALY   = 294.4110

EPHEMERIS_TYPE = 0
CLASSIFICATION_TYPE = U
NORAD_CAT_ID   = 19257
ELEMENT_SET_NO = 999
REV_AT_EPOCH   = 98047
BSTAR          = .10663E-3
MEAN_MOTION_DOT = .303E-5
MEAN_MOTION_DDOT = 0

CCSDS_OMM_VERS = 2.0
CREATION_DATE  = 
ORIGINATOR     = 

OBJECT_NAME    = COSMOS 1975
OBJECT_ID      = 1988-093A
CENTER_NAME    = EARTH
REF_FRAME      = TEME
TIME_SYSTEM    = UTC
MEAN_ELEMENT_THEORY = SGP/SGP4

EPOCH          = 2026-04-05T10:32:20.568480
MEAN_MOTION    = 15.28465707
ECCENTRICITY   = .0013315
INCLINATION    = 82.5164
RA_OF_ASC_NODE = 90.8179
ARG_OF_PERICENTER = 79.5828
MEAN_ANOMALY   = 280.6911

EPHEMERIS_TYPE = 0
CLASSIFICATION_TYPE = U
NORAD_CAT_ID   = 19573
ELEMENT_SET_NO = 999
REV_AT_EPOCH   = 2349
BSTAR          = .27465E-3
MEAN_MOTION_DOT = .766E-4
MEAN_MOTION_DDOT = 0

CCSDS_OMM_VERS = 2.0
CREATION_DATE  = 
ORIGINATOR     = 

OBJECT_NAME    = SL-14 R/B
OBJECT_ID      = 1988-093B
CENTER_NAME    = EARTH
REF_FRAME      = TEME
TIME_SYSTEM    = UTC
MEAN_ELEMENT_THEORY = SGP/SGP4

EPOCH          = 2026-04-05T17:42:06.994944
MEAN_MOTION    = 14.85691012
ECCENTRICITY   = .0019496
INCLINATION    = 82.5346
RA_OF_ASC_NODE = 16.6587
ARG_OF_PERICENTER = 311.7800
MEAN_ANOMALY   = 110.0473

EPHEMERIS_TYPE = 0
CLASSIFICATION_TYPE = U
NORAD_CAT_ID   = 19574
ELEMENT_SET_NO = 999
REV_AT_EPOCH   = 503
BSTAR          = .82945E-4
MEAN_MOTION_DOT = .745E-5
MEAN_MOTION_DDOT = 0

CCSDS_OMM_VERS = 2.0
CREATION_DATE  = 
ORIGINATOR     = 

OBJECT_NAME    = SL-16 R/B
OBJECT_ID      = 1988-102B
CENTER_NAME    = EARTH
REF_FRAME      = TEME
TIME_SYSTEM    = UTC
MEAN_ELEMENT_THEORY = SGP/SGP4

EPOCH          = 2026-04-05T17:54:27.411840
MEAN_MOTION    = 14.16156239
ECCENTRICITY   = .0015467
INCLINATION    = 70.9972
RA_OF_ASC_NODE = 94.5654
ARG_OF_PERICENTER = 322.2154
MEAN_ANOMALY   = 37.7882

EPHEMERIS_TYPE = 0
CLASSIFICATION_TYPE = U
NORAD_CAT_ID   = 19650
ELEMENT_SET_NO = 999
REV_AT_EPOCH   = 93072
BSTAR          = .17793E-3
MEAN_MOTION_DOT = .305E-5
MEAN_MOTION_DDOT = 0

CCSDS_OMM_VERS = 2.0
CREATION_DATE  = 
ORIGINATOR     = 

OBJECT_NAME    = INTERCOSMOS 24
OBJECT_ID      = 1989-080A
CENTER_NAME    = EARTH
REF_FRAME      = TEME
TIME_SYSTEM    = UTC
MEAN_ELEMENT_THEORY = SGP/SGP4

EPOCH          = 2026-04-05T11:48:34.773696
MEAN_MOTION    = 12.59591595
ECCENTRICITY   = .11870267
INCLINATION    = 82.6016
RA_OF_ASC_NODE = 86.9452
ARG_OF_PERICENTER = 230.5586
MEAN_ANOMALY   = 118.4500

EPHEMERIS_TYPE = 0
CLASSIFICATION_TYPE = U
NORAD_CAT_ID   = 20261
ELEMENT_SET_NO = 999
REV_AT_EPOCH   = 67017
BSTAR          = .14378024E-3
MEAN_MOTION_DOT = .49E-5
MEAN_MOTION_DDOT = 0

CCSDS_OMM_VERS = 2.0
CREATION_DATE  = 
ORIGINATOR     = 

OBJECT_NAME    = SL-14 R/B
OBJECT_ID      = 1989-080C
CENTER_NAME    = EARTH
REF_FRAME      = TEME
TIME_SYSTEM    = UTC
MEAN_ELEMENT_THEORY = SGP/SGP4

EPOCH          = 2026-04-05T14:26:22.434720
MEAN_MOTION    = 12.50519627
ECCENTRICITY   = .1230919
INCLINATION    = 82.5944
RA_OF_ASC_NODE = 155.9175
ARG_OF_PERICENTER = 123.2674
MEAN_ANOMALY   = 249.2508

EPHEMERIS_TYPE = 0
CLASSIFICATION_TYPE = U
NORAD_CAT_ID   = 20262
ELEMENT_SET_NO = 999
REV_AT_EPOCH   = 66351
BSTAR          = .12836E-3
MEAN_MOTION_DOT = .457E-5
MEAN_MOTION_DDOT = 0

CCSDS_OMM_VERS = 2.0
CREATION_DATE  = 
ORIGINATOR     = 

OBJECT_NAME    = DELTA 1 R/B
OBJECT_ID      = 1989-089B
CENTER_NAME    = EARTH
REF_FRAME      = TEME
TIME_SYSTEM    = UTC
MEAN_ELEMENT_THEORY = SGP/SGP4

EPOCH          = 2026-04-05T19:07:43.066272
MEAN_MOTION    = 14.50687224
ECCENTRICITY   = .0070036
INCLINATION    = 97.0683
RA_OF_ASC_NODE = 298.9196
ARG_OF_PERICENTER = 37.9194
MEAN_ANOMALY   = 322.6906

EPHEMERIS_TYPE = 0
CLASSIFICATION_TYPE = U
NORAD_CAT_ID   = 20323
ELEMENT_SET_NO = 999
REV_AT_EPOCH   = 89966
BSTAR          = .12282E-3
MEAN_MOTION_DOT = .463E-5
MEAN_MOTION_DDOT = 0

CCSDS_OMM_VERS = 2.0
CREATION_DATE  = 
ORIGINATOR     = 

OBJECT_NAME    = ARIANE 40 R/B
OBJECT_ID      = 1990-005H
CENTER_NAME    = EARTH
REF_FRAME      = TEME
TIME_SYSTEM    = UTC
MEAN_ELEMENT_THEORY = SGP/SGP4

EPOCH          = 2026-04-05T15:17:11.026752
MEAN_MOTION    = 14.39889914
ECCENTRICITY   = .0011297
INCLINATION    = 98.3028
RA_OF_ASC_NODE = 155.4879
ARG_OF_PERICENTER = 121.1802
MEAN_ANOMALY   = 239.0495

EPHEMERIS_TYPE = 0
CLASSIFICATION_TYPE = U
NORAD_CAT_ID   = 20443
ELEMENT_SET_NO = 999
REV_AT_EPOCH   = 89668
BSTAR          = .14142E-3
MEAN_MOTION_DOT = .403E-5
MEAN_MOTION_DDOT = 0

CCSDS_OMM_VERS = 2.0
CREATION_DATE  = 
ORIGINATOR     = 

OBJECT_NAME    = DELTA 2 R/B(1)
OBJECT_ID      = 1990-008B
CENTER_NAME    = EARTH
REF_FRAME      = TEME
TIME_SYSTEM    = UTC
MEAN_ELEMENT_THEORY = SGP/SGP4

EPOCH          = 2026-04-05T20:50:30.503040
MEAN_MOTION    = 15.59877548
ECCENTRICITY   = .0076137
INCLINATION    = 35.6040
RA_OF_ASC_NODE = 355.9990
ARG_OF_PERICENTER = 154.7475
MEAN_ANOMALY   = 205.7012

EPHEMERIS_TYPE = 0
CLASSIFICATION_TYPE = U
NORAD_CAT_ID   = 20453
ELEMENT_SET_NO = 999
REV_AT_EPOCH   = 93037
BSTAR          = .74949E-3
MEAN_MOTION_DOT = .72437E-3
MEAN_MOTION_DDOT = 0

